[{"OBJECT_NAME":"OBJECT D","OBJECT_ID":"2024-203D","EPOCH":"2026-03-09T23:01:14.628576","MEAN_MOTION":15.25394324,"ECCENTRICITY":0.00105281,"INCLINATION":97.4343,"RA_OF_ASC_NODE":139.6527,"ARG_OF_PERICENTER":340.1906,"MEAN_ANOMALY":19.8921,"EPHEMERIS_TYPE":0,"CLASSIFICATION_TYPE":"U","NORAD_CAT_ID":61872,"ELEMENT_SET_NO":999,"REV_AT_EPOCH":7378,"BSTAR":0.00059366578,"MEAN_MOTION_DOT":0.00014956,"MEAN_MOTION_DDOT":0},{"OBJECT_NAME":"STARLINK-35695","OBJECT_ID":"2025-268B","EPOCH":"2026-03-09T03:42:57.450240","MEAN_MOTION":15.27597305,"ECCENTRICITY":0.00041644,"INCLINATION":43.0083,"RA_OF_ASC_NODE":350.4619,"ARG_OF_PERICENTER":256.8745,"MEAN_ANOMALY":103.1642,"EPHEMERIS_TYPE":0,"CLASSIFICATION_TYPE":"U","NORAD_CAT_ID":66558,"ELEMENT_SET_NO":999,"REV_AT_EPOCH":1787,"BSTAR":0.0011711522,"MEAN_MOTION_DOT":0.00032128,"MEAN_MOTION_DDOT":0}]
